0 SPOT 1
1 16613U 86019A   13282.51520010  .00000674  00000-0  12526-3 0  7614
2 16613 098.6794 228.5495 0148020 245.3883 210.3354 14.62207801132437
0 SPOT 1
1 16613U 86019A   13283.80830641  .00000608  00000-0  11398-3 0  7625
2 16613 098.6797 229.9082 0148024 241.3645 177.1993 14.62209256132629
0 SPOT 1
1 16613U 86019A   13286.49204933  .00000591  00000-0  11118-3 0  7645
2 16613 098.6804 232.7277 0148143 233.0171 264.3595 14.62212727133018
0 SPOT 1
1 16613U 86019A   13287.84462039  .00000830  00000-0  15158-3 0  7653
2 16613 098.6808 234.1488 0148222 228.8253 184.2621 14.62216194133217
0 SPOT 1
1 16613U 86019A   13288.87298567  .00000919  00000-0  16663-3 0  7661
2 16613 098.6811 235.2292 0148302 225.6397 197.5658 14.62218476133367
0 SPOT 1
1 16613U 86019A   13290.46164619  .00000849  00000-0  15463-3 0  7679
2 16613 098.6814 236.8985 0148386 220.7044 280.2831 14.62222296133596
0 SPOT 1
1 16613U 86019A   13291.48753051  .00000801  00000-0  14648-3 0  7689
2 16613 098.6816 237.9766 0148440 217.5204 280.5526 14.62223688133747
0 SPOT 1
1 16613U 86019A   13292.51150851  .00000849  00000-0  15467-3 0  7696
2 16613 098.6817 239.0528 0148494 214.3489 270.7891 14.62225137133899
0 SPOT 1
1 16613U 86019A   13293.85856441  .00000944  00000-0  17068-3 0  7709
2 16613 098.6818 240.4684 0148569 210.1676 161.7295 14.62227633134097
0 SPOT 1
1 16613U 86019A   13294.95913036  .00001006  00000-0  18108-3 0  7712
2 16613 098.6819 241.6251 0148634 206.7594 195.1419 14.62229918134259
0 SPOT 1
1 16613U 86019A   13295.98557211  .00000951  00000-0  17167-3 0  7728
2 16613 098.6819 242.7038 0148698 203.5752 198.3737 14.62232143134404
